{
    "links": {
        "self": "http://www.neowsapp.com/rest/v1/neo/3404522?api_key=iIulBulltgU6a56xZRHN4H3l9WmuAYTsLGpBGhQ2"
    },
    "id": "3404522",
    "neo_reference_id": "3404522",
    "name": "(2008 EF)",
    "designation": "2008 EF",
    "nasa_jpl_url": "http://ssd.jpl.nasa.gov/sbdb.cgi?sstr=3404522",
    "absolute_magnitude_h": 21.9,
    "estimated_diameter": {
        "kilometers": {
            "estimated_diameter_min": 0.1108038821,
            "estimated_diameter_max": 0.2477650126
        },
        "meters": {
            "estimated_diameter_min": 110.8038821264,
            "estimated_diameter_max": 247.7650126055
        },
        "miles": {
            "estimated_diameter_min": 0.068850319,
            "estimated_diameter_max": 0.1539539936
        },
        "feet": {
            "estimated_diameter_min": 363.5298086356,
            "estimated_diameter_max": 812.8773639568
        }
    },
    "is_potentially_hazardous_asteroid": false,
    "close_approach_data": [
        {
            "close_approach_date": "2008-01-20",
            "close_approach_date_full": "2008-Jan-20 10:41",
            "epoch_date_close_approach": 1200825660000,
            "relative_velocity": {
                "kilometers_per_second": "12.1691231619",
                "kilometers_per_hour": "43808.8433828101",
                "miles_per_hour": "27221.1116008355"
            },
            "miss_distance": {
                "astronomical": "0.1832585383",
                "lunar": "71.2875713987",
                "kilometers": "27415086.988993421",
                "miles": "17034945.1340583698"
            },
            "orbiting_body": "Earth"
        }
    ],
    "orbital_data": {
        "orbit_id": "8",
        "orbit_determination_date": "2017-04-06 09:04:12",
        "first_observation_date": "2008-03-01",
        "last_observation_date": "2008-03-09",
        "data_arc_in_days": 8,
        "observations_used": 23,
        "orbit_uncertainty": "9",
        "minimum_orbit_intersection": ".122233",
        "jupiter_tisserand_invariant": "3.439",
        "epoch_osculation": "2454528.5",
        "eccentricity": ".5518729195862371",
        "semi_major_axis": "2.200048641675159",
        "inclination": "7.994302783513904",
        "ascending_node_longitude": "354.6633738893876",
        "orbital_period": "1191.919297625395",
        "perihelion_distance": ".9859013745621537",
        "perihelion_argument": "83.77804976113669",
        "aphelion_distance": "3.414195908788163",
        "perihelion_time": "2454457.298853696050",
        "mean_anomaly": "21.50515787477244",
        "mean_motion": ".3020338715189956",
        "equinox": "J2000",
        "orbit_class": {
            "orbit_class_type": "APO",
            "orbit_class_description": "Near-Earth asteroid orbits which cross the Earth’s orbit similar to that of 1862 Apollo",
            "orbit_class_range": "a (semi-major axis) > 1.0 AU; q (perihelion) < 1.017 AU"
        }
    },
    "is_sentry_object": false
}